GLOBALSTAR M035         
1 25851U 99037A   25196.83149012 -.00000051  00000+0  47660-3 0  9992
2 25851  51.9981 351.0868 0013875  31.2117 114.9031 11.04539029 99423
GLOBALSTAR M032         
1 25852U 99037B   25196.64760620 -.00000053  00000+0  44142-3 0  9990
2 25852  51.9918 174.7296 0012092 215.1614 144.8389 11.19062160137978
GLOBALSTAR M051         
1 25853U 99037C   25197.10888950 -.00000078  00000+0 -14718-3 0  9994
2 25853  51.9824 331.1234 0000299 179.1181 180.9630 11.42204528135712
GLOBALSTAR M030         
1 25854U 99037D   25196.55389625 -.00000039  00000+0  76759-3 0  9997
2 25854  51.9864 136.7628 0003266  89.1713 270.9478 11.55109308153322
GLOBALSTAR M048         
1 25872U 99041A   25196.97269030 -.00000060  00000+0  28015-3 0  9991
2 25872  51.9365 267.6009 0013641 233.3911 307.2356 11.33858066128246
GLOBALSTAR M026         
1 25873U 99041B   25196.96360646  .00000049  00000+0  41784-2 0  9999
2 25873  52.0012 108.4483 0002164 336.4900 106.3089 11.06844527151678
GLOBALSTAR M043         
1 25874U 99041C   25196.75861685 -.00000098  00000+0 -87613-3 0  9994
2 25874  51.9425  16.8885 0013414   4.0994   8.4510 11.25694484126099
GLOBALSTAR M028         
1 25875U 99041D   25197.00574658 -.00000081  00000+0  12809-3 0  9991
2 25875  51.9623 107.1326 0063400 133.4746 227.1410 12.50584433193810
